     2.10           G: GLONASS NAV DATA                     RINEX VERSION / TYPE
teqc  2011Oct11     IGN-E (SPG)         20150127 07:00:49UTCPGM / RUN BY / DATE
Linux 2.4.21-27.ELsmp|Opteron|gcc -static|Linux x86_64|=+   COMMENT
                                                            END OF HEADER
 1 15  1 27  5 45  0.0-1.567741855979D-04 0.000000000000D+00 1.980000000000D+04
    2.297553222656D+04 1.386346817017D+00 2.793967723846D-09 0.000000000000D+00
   -4.486090332031D+03-9.892940521240D-02 0.000000000000D+00 1.000000000000D+00
   -1.011641748047D+04 3.195839881897D+00 0.000000000000D+00 0.000000000000D+00
 2 15  1 26 15 45  0.0 1.154625788331D-04 9.094947017729D-13 5.580000000000D+04
    1.819910546875D+04-8.796539306641D-01 2.793967723846D-09 0.000000000000D+00
    1.583628076172D+04-7.260026931763D-01 0.000000000000D+00-4.000000000000D+00
   -8.213644042969D+03-3.340028762817D+00 1.862645149231D-09 0.000000000000D+00
 3 15  1 27  0 45  0.0 3.391690552235D-05 9.094947017729D-13 1.800000000000D+03
   -9.931339843750D+03-7.092847824097D-01 9.313225746155D-10 0.000000000000D+00
    5.430791503906D+03-3.043929100037D+00-9.313225746155D-10 5.000000000000D+00
    2.288990283203D+04 4.128932952881D-01-2.793967723846D-09 0.000000000000D+00
 4 15  1 27  2 45  0.0 1.070173457265D-04 9.094947017729D-13 9.000000000000D+03
   -1.134560742188D+04-2.153329849243D+00-0.000000000000D+00 0.000000000000D+00
    3.685065429688D+03-2.210702896118D+00-1.862645149231D-09 6.000000000000D+00
    2.255277294922D+04-7.228336334229D-01-2.793967723846D-09 0.000000000000D+00
 5 15  1 27  4 15  0.0 1.125037670135D-06 0.000000000000D+00 1.440000000000D+04
   -1.050360742188D+04-2.794221878052D+00-9.313225746155D-10 0.000000000000D+00
    7.103666503906D+03-1.176057815552D+00-1.862645149231D-09 1.000000000000D+00
    2.211851855469D+04-9.477882385254D-01-1.862645149231D-09 0.000000000000D+00
 6 15  1 27  5 45  0.0 6.151106208563D-05 0.000000000000D+00 1.980000000000D+04
   -7.448260253906D+03-3.015472412109D+00-1.862645149231D-09 0.000000000000D+00
    1.052084960938D+04-1.251983642578D-02-9.313225746155D-10-4.000000000000D+00
    2.198569238281D+04-1.017260551453D+00-1.862645149231D-09 0.000000000000D+00
 7 15  1 27  5 45  0.0-1.135570928454D-04-0.000000000000D+00 1.980000000000D+04
    1.144664160156D+04-2.796291351318D+00 0.000000000000D+00 0.000000000000D+00
    1.004763378906D+04-1.398277282715D-01-9.313225746155D-10 5.000000000000D+00
    2.049157275391D+04 1.630787849426D+00-2.793967723846D-09 0.000000000000D+00
 8 15  1 27  5 45  0.0-2.620369195938D-05-0.000000000000D+00 1.980000000000D+04
    2.406585937500D+04-1.004281044006D+00 1.862645149231D-09 0.000000000000D+00
    4.093531738281D+03-1.731109619141D-01-0.000000000000D+00 6.000000000000D+00
    7.407323242188D+03 3.380056381226D+00-1.862645149231D-09 0.000000000000D+00
 9 15  1 27  1 45  0.0-5.666166543961D-06 9.094947017729D-13 5.400000000000D+03
    1.949116894531D+04-2.005725860596D+00 9.313225746155D-10 0.000000000000D+00
    7.497789062500D+03-2.211217880249D-01 2.793967723846D-09-2.000000000000D+00
   -1.474249365234D+04-2.757490158081D+00 9.313225746155D-10 0.000000000000D+00
10 15  1 27  3 15  0.0 6.549060344696D-06 0.000000000000D+00 1.080000000000D+04
    1.961968701172D+04-2.148046493530D+00 1.862645149231D-09 0.000000000000D+00
    4.181157226562D+02 6.260242462158D-01 1.862645149231D-09-7.000000000000D+00
   -1.626942822266D+04-2.582780838013D+00 9.313225746155D-10 0.000000000000D+00
11 15  1 27  4 15  0.0-1.396983861923D-07 9.094947017729D-13 1.440000000000D+04
    2.091110351562D+04-1.436417579651D+00 1.862645149231D-09 0.000000000000D+00
   -8.497739746094D+03 8.095874786377D-01 9.313225746155D-10 0.000000000000D+00
   -1.196747314453D+04-3.075882911682D+00 9.313225746155D-10 0.000000000000D+00
12 15  1 27  5 45  0.0-7.560476660728D-06 0.000000000000D+00 1.980000000000D+04
    1.619481250000D+04-1.041234016418D+00 1.862645149231D-09 0.000000000000D+00
   -1.501604687500D+04 1.395648956299D+00 0.000000000000D+00-1.000000000000D+00
   -1.265034423828D+04-3.009035110474D+00 9.313225746155D-10 0.000000000000D+00
13 15  1 27  5 45  0.0-4.695178940892D-04-9.094947017729D-13 1.980000000000D+04
    1.089399462891D+04 1.872692108154D-01 9.313225746155D-10 0.000000000000D+00
   -2.247761621094D+04-7.169561386108D-01 0.000000000000D+00-2.000000000000D+00
    5.165214355469D+03-3.505305290222D+00-0.000000000000D+00 0.000000000000D+00
14 15  1 27  5 45  0.0 1.241834834218D-04 3.637978807092D-12 1.980000000000D+04
   -4.849267578125D+02 1.322465896606D+00-9.313225746155D-10 0.000000000000D+00
   -1.607953466797D+04-2.374948501587D+00-0.000000000000D+00-7.000000000000D+00
    1.975632958984D+04-1.904860496521D+00-9.313225746155D-10 0.000000000000D+00
15 15  1 27  5 45  0.0 3.781169652939D-05 9.094947017729D-13 2.118000000000D+04
   -1.110386230469D+04 1.683557510376D+00-1.862645149231D-09 0.000000000000D+00
   -1.592728515625D+03-2.650667190552D+00-9.313225746155D-10 0.000000000000D+00
    2.290878417969D+04 6.419124603271D-01-1.862645149231D-09 0.000000000000D+00
16 15  1 27  0 15  0.0-2.382043749094D-05 9.094947017729D-13 0.000000000000D+00
    1.637701025391D+04-1.601763725281D+00-0.000000000000D+00 0.000000000000D+00
    1.424966601562D+04-8.932390213013D-01 2.793967723846D-09-1.000000000000D+00
   -1.335818847656D+04-2.930010795593D+00 9.313225746155D-10 0.000000000000D+00
17 15  1 26 21 45  0.0 1.466721296310D-04 9.094947017729D-13 7.740000000000D+04
   -8.381769531250D+03-3.005081176758D+00 0.000000000000D+00 0.000000000000D+00
    9.897381347656D+03-6.087017059326D-02 9.313225746155D-10 4.000000000000D+00
    2.198699609375D+04-1.122839927673D+00-2.793967723846D-09 0.000000000000D+00
18 15  1 26 23 45  0.0 3.531854599714D-05 1.818989403546D-12 8.460000000000D+04
   -9.959387695312D+03-2.142356872559D+00 9.313225746155D-10 0.000000000000D+00
    1.490320263672D+04 1.266593933105D+00 9.313225746155D-10-3.000000000000D+00
    1.819485937500D+04-2.205938339233D+00-2.793967723846D-09 0.000000000000D+00
19 15  1 27  1 45  0.0-1.167356967926D-04-9.094947017729D-13 5.400000000000D+03
   -5.471806152344D+03-9.128866195679D-01 9.313225746155D-10 0.000000000000D+00
    2.054779638672D+04 1.707672119141D+00 0.000000000000D+00 3.000000000000D+00
    1.408997167969D+04-2.845897674561D+00-2.793967723846D-09 0.000000000000D+00
20 15  1 27  3 45  0.0-1.551741734147D-04-9.094947017729D-13 1.260000000000D+04
    2.243314453125D+03 1.438970565796D-01 9.313225746155D-10 0.000000000000D+00
    2.434633300781D+04 1.015630722046D+00 0.000000000000D+00 2.000000000000D+00
    7.372888671875D+03-3.396986007690D+00-1.862645149231D-09 0.000000000000D+00
21 15  1 27  5 45  0.0-3.927387297153D-06 1.818989403546D-12 1.980000000000D+04
    1.122651708984D+04 4.233169555664D-02 9.313225746155D-10 0.000000000000D+00
    2.281828710938D+04-2.988233566284D-01-0.000000000000D+00 4.000000000000D+00
   -1.773453613281D+03-3.570299148560D+00-9.313225746155D-10 0.000000000000D+00
22 15  1 27  5 45  0.0 1.511014997959D-04 1.818989403546D-12 1.980000000000D+04
    1.536034716797D+04 1.089442253113D+00 9.313225746155D-10 0.000000000000D+00
    1.413644921875D+04 1.703113555908D+00-0.000000000000D+00-3.000000000000D+00
    1.476245703125D+04-2.753093719482D+00-2.793967723846D-09 0.000000000000D+00
23 15  1 27  5 45  0.0-7.061781361699D-04-3.637978807092D-12 1.980000000000D+04
    1.018857812500D+04 1.504128456116D+00 0.000000000000D+00 0.000000000000D+00
   -3.742505859375D+03 2.781955718994D+00-9.313225746155D-10 3.000000000000D+00
    2.308035253906D+04-2.131881713867D-01-2.793967723846D-09 0.000000000000D+00
24 15  1 27  5 45  0.0-1.204907894135D-04-0.000000000000D+00 1.980000000000D+04
   -2.806704101562D+02 1.052913665771D+00-0.000000000000D+00 0.000000000000D+00
   -1.815920703125D+04 2.221426963806D+00-0.000000000000D+00 2.000000000000D+00
    1.789134912109D+04 2.269031524658D+00-9.313225746155D-10 0.000000000000D+00
 8 15  1 27  6 15  0.0-2.620369195938D-05 0.000000000000D+00 2.160000000000D+04
    2.152531445312D+04-1.793682098389D+00 1.862645149231D-09 0.000000000000D+00
    3.962718750000D+03 6.318664550781D-02-0.000000000000D+00 6.000000000000D+00
    1.312669628906D+04 2.933674812317D+00-1.862645149231D-09 0.000000000000D+00
 1 15  1 27  6 15  0.0-1.567741855979D-04 0.000000000000D+00 2.160000000000D+04
    2.471701806641D+04 5.344686508179D-01 2.793967723846D-09 0.000000000000D+00
   -4.787756835938D+03-1.971559524536D-01-0.000000000000D+00 1.000000000000D+00
   -4.046838378906D+03 3.504317283630D+00-9.313225746155D-10 0.000000000000D+00
13 15  1 27  6 15  0.0-4.695197567344D-04-9.094947017729D-13 2.160000000000D+04
    1.078967089844D+04-2.680711746216D-01 1.862645149231D-09 0.000000000000D+00
   -2.308178466797D+04 6.897544860840D-02 0.000000000000D+00-2.000000000000D+00
   -1.262525390625D+03-3.590240478516D+00 0.000000000000D+00 0.000000000000D+00
 7 15  1 27  6 15  0.0-1.135580241680D-04-0.000000000000D+00 2.160000000000D+04
    6.120408691406D+03-3.072612762451D+00-0.000000000000D+00 0.000000000000D+00
    1.018162353516D+04 3.000831604004D-01-9.313225746155D-10 5.000000000000D+00
    2.259932861328D+04 6.960010528564D-01-2.793967723846D-09 0.000000000000D+00
14 15  1 27  6 15  0.0 1.241909340024D-04 3.637978807092D-12 2.160000000000D+04
    1.349192871094D+03 7.202634811401D-01-0.000000000000D+00 0.000000000000D+00
   -2.008740136719D+04-2.029074668884D+00-0.000000000000D+00-7.000000000000D+00
    1.560544140625D+04-2.677260398865D+00-9.313225746155D-10 0.000000000000D+00
15 15  1 27  6 15  0.0 3.781355917454D-05 9.094947017729D-13 2.160000000000D+04
   -8.418164062500D+03 1.274159431458D+00-1.862645149231D-09 0.000000000000D+00
   -6.634817871094D+03-2.905440330505D+00-0.000000000000D+00 0.000000000000D+00
    2.316441113281D+04-3.594036102295D-01-1.862645149231D-09 0.000000000000D+00
